NORAD_CAT_ID,OBJECT_NAME,OBJECT_TYPE,EPOCH,MEAN_MOTION,ECCENTRICITY,INCLINATION,RA_OF_ASC_NODE,ARG_OF_PERICENTER,MEAN_ANOMALY,BSTAR,MEAN_MOTION_DOT,MEAN_MOTION_DDOT,TLE_LINE0,TLE_LINE1,TLE_LINE2,SEMIMAJOR_AXIS,PERIOD,APOGEE,PERIGEE,DECAYED
52489.0,STARLINK-3923,PAYLOAD,2023-03-25 21:47:02,15.08826146,0.00014,53.216,226.4445,118.8052,241.3081,0.0024178,0.00038387,0.0,0 STARLINK-3923,1 52489U 22049AQ  23084.90766651  .00038387  00000-0  24178-2 0  9995,2 52489  53.2160 226.4445 0001400 118.8052 241.3081 15.08826146 49243,6917.923,95.438,540.756,538.819,0.0
52489.0,STARLINK-3923,PAYLOAD,2023-03-26 04:08:35,15.08812654,0.000143,53.216,225.2553,120.1196,239.9938,0.00088789,0.0001386,0.0,0 STARLINK-3923,1 52489U 22049AQ  23085.17263384  .00013860  00000-0  88789-3 0  9998,2 52489  53.2160 225.2553 0001430 120.1196 239.9938 15.08812654 49443,6917.964,95.439,540.818,538.84,0.0
52489.0,STARLINK-3923,PAYLOAD,2023-03-26 21:37:50,15.08844483,0.0001405,53.2157,221.9847,119.2566,240.8567,0.0021996,0.00034897,0.0,0 STARLINK-3923,1 52489U 22049AQ  23085.90128289  .00034897  00000-0  21996-2 0  9992,2 52489  53.2157 221.9847 0001405 119.2566 240.8567 15.08844483 49398,6917.867,95.437,540.704,538.76,0.0
52489.0,STARLINK-3923,PAYLOAD,2023-03-27 13:31:42,15.08857751,0.0001301,53.2157,219.0108,111.9151,248.198,0.0018473,0.00029248,0.0,0 STARLINK-3923,1 52489U 22049AQ  23086.56368453  .00029248  00000-0  18473-2 0  9994,2 52489  53.2157 219.0108 0001301 111.9151 248.1980 15.08857751 49651,6917.826,95.436,540.591,538.791,0.0
52489.0,STARLINK-3923,PAYLOAD,2023-03-27 18:17:51,15.08872181,0.0001326,53.2158,218.1187,112.5176,247.5957,0.0022024,0.00034968,0.0,0 STARLINK-3923,1 52489U 22049AQ  23086.76240116  .00034968  00000-0  22024-2 0  9993,2 52489  53.2158 218.1187 0001326 112.5176 247.5957 15.08872181 49527,6917.782,95.436,540.564,538.73,0.0
52489.0,STARLINK-3923,PAYLOAD,2023-03-28 03:50:10,15.088508,0.0001313,53.2159,216.335,102.6664,257.4475,0.00056899,8.782e-05,0.0,0 STARLINK-3923,1 52489U 22049AQ  23087.15984198  .00008782  00000-0  56899-3 0  9995,2 52489  53.2159 216.3350 0001313 102.6664 257.4475 15.08850800 49741,6917.847,95.437,540.621,538.804,0.0
52489.0,STARLINK-3923,PAYLOAD,2023-03-28 13:22:29,15.08851505,0.0001244,53.216,214.551,97.3922,262.7211,0.0012967,0.00020416,0.0,0 STARLINK-3923,1 52489U 22049AQ  23087.55728307  .00020416  00000-0  12967-2 0  9992,2 52489  53.2160 214.5510 0001244  97.3922 262.7211 15.08851505 49640,6917.845,95.437,540.571,538.85,0.0
52489.0,STARLINK-3923,PAYLOAD,2023-03-28 14:57:52,15.08853794,0.0001301,53.2159,214.2537,94.6938,265.4203,0.0014004,0.00022078,0.0,0 STARLINK-3923,1 52489U 22049AQ  23087.62352254  .00022078  00000-0  14004-2 0  9994,2 52489  53.2159 214.2537 0001301  94.6938 265.4203 15.08853794 49659,6917.838,95.437,540.603,538.803,0.0
52489.0,STARLINK-3923,PAYLOAD,2023-03-29 13:13:16,15.0883987,0.0001367,53.2162,210.0898,56.1908,303.9214,0.0020665,0.00032753,0.0,0 STARLINK-3923,1 52489U 22049AQ  23088.55089076  .00032753  00000-0  20665-2 0  9997,2 52489  53.2162 210.0898 0001367  56.1908 303.9214 15.08839870 49951,6917.881,95.438,540.691,538.8,0.0
52489.0,STARLINK-3923,PAYLOAD,2023-03-29 16:24:03,15.08847624,0.0001386,53.2162,209.4939,69.706,290.4081,0.0024634,0.00039143,0.0,0 STARLINK-3923,1 52489U 22049AQ  23088.68337014  .00039143  00000-0  24634-2 0  9999,2 52489  53.2162 209.4939 0001386  69.7060 290.4081 15.08847624 49812,6917.857,95.437,540.681,538.763,0.0
52489.0,STARLINK-3923,PAYLOAD,2023-03-30 13:04:03,15.08857636,0.0001591,53.2171,205.6266,79.3293,280.7878,0.00085365,0.0001333,0.0,0 STARLINK-3923,1 52489U 22049AQ  23089.54448604  .00013330  00000-0  85365-3 0  9992,2 52489  53.2171 205.6266 0001591  79.3293 280.7878 15.08857636 50100,6917.826,95.436,540.792,538.591,0.0
52489.0,STARLINK-3923,PAYLOAD,2023-03-30 19:25:35,15.08898329,0.0001377,53.2168,204.4388,69.3952,290.7188,0.0017881,0.0002833,0.0,0 STARLINK-3923,1 52489U 22049AQ  23089.80943596  .00028330  00000-0  17881-2 0  9994,2 52489  53.2168 204.4388 0001377  69.3952 290.7188 15.08898329 50144,6917.702,95.434,540.52,538.615,0.0
52489.0,STARLINK-3923,PAYLOAD,2023-03-31 06:33:17,15.08839647,0.0001462,53.2172,202.3554,96.9056,263.2103,-0.00027918,-4.728e-05,0.0,0 STARLINK-3923,1 52489U 22049AQ  23090.27312277 -.00004728  00000-0 -27918-3 0  9993,2 52489  53.2172 202.3554 0001462  96.9056 263.2103 15.08839647 50215,6917.881,95.438,540.758,538.735,0.0
52489.0,STARLINK-3923,PAYLOAD,2023-03-31 16:05:36,15.08876521,0.0001252,53.2161,200.5753,89.6635,270.45,0.003006,0.00047926,0.0,0 STARLINK-3923,1 52489U 22049AQ  23090.67055652  .00047926  00000-0  30060-2 0  9994,2 52489  53.2161 200.5753 0001252  89.6635 270.4500 15.08876521 50272,6917.769,95.435,540.5,538.768,0.0
52489.0,STARLINK-3923,PAYLOAD,2023-04-01 06:24:04,15.08849972,0.0002528,53.217,197.9052,77.8901,282.2374,0.00084833,0.00013243,0.0,0 STARLINK-3923,1 52489U 22049AQ  23091.26672277  .00013243  00000-0  84833-3 0  9991,2 52489  53.2170 197.9052 0002528  77.8901 282.2374 15.08849972 50365,6917.85,95.437,541.464,537.966,0.0
52489.0,STARLINK-3923,PAYLOAD,2023-04-01 12:45:37,15.08821294,0.0001272,53.216,196.7098,68.2396,291.8731,0.0013662,0.00021511,0.0,0 STARLINK-3923,1 52489U 22049AQ  23091.53168953  .00021511  00000-0  13662-2 0  9990,2 52489  53.2160 196.7098 0001272  68.2396 291.8731 15.08821294 50245,6917.938,95.439,540.683,538.923,0.0
52489.0,STARLINK-3923,PAYLOAD,2023-04-01 15:56:24,15.08827082,0.0001304,53.2161,196.1145,64.8825,295.2303,0.0021652,0.00034327,0.0,0 STARLINK-3923,1 52489U 22049AQ  23091.66417108  .00034327  00000-0  21652-2 0  9990,2 52489  53.2161 196.1145 0001304  64.8825 295.2303 15.08827082 50422,6917.92,95.438,540.687,538.883,0.0
52489.0,STARLINK-3923,PAYLOAD,2023-04-02 14:11:48,15.08865976,0.0001447,53.216,191.9526,66.2039,293.9105,0.0017028,0.00026935,0.0,0 STARLINK-3923,1 52489U 22049AQ  23092.59152956  .00026935  00000-0  17028-2 0  9998,2 52489  53.2160 191.9526 0001447  66.2039 293.9105 15.08865976 50562,6917.801,95.436,540.667,538.665,0.0
52489.0,STARLINK-3923,PAYLOAD,2023-04-02 15:47:11,15.08872387,0.0001409,53.216,191.6553,66.7839,293.3302,0.0018516,0.00029329,0.0,0 STARLINK-3923,1 52489U 22049AQ  23092.65776770  .00029329  00000-0  18516-2 0  9994,2 52489  53.2160 191.6553 0001409  66.7839 293.3302 15.08872387 50411,6917.781,95.436,540.621,538.672,0.0
52489.0,STARLINK-3923,PAYLOAD,2023-04-03 06:05:39,15.0885395,0.0002085,53.216,188.9796,76.7284,283.394,0.0010897,0.00017104,0.0,0 STARLINK-3923,1 52489U 22049AQ  23093.25393098  .00017104  00000-0  10897-2 0  9991,2 52489  53.2160 188.9796 0002085  76.7284 283.3940 15.08853950 50664,6917.838,95.437,541.145,538.26,0.0
52489.0,STARLINK-3923,PAYLOAD,2023-04-03 10:51:49,15.08842058,0.0001514,53.2162,188.0873,77.3805,282.7356,0.0009825,0.00015384,0.0,0 STARLINK-3923,1 52489U 22049AQ  23093.45265132  .00015384  00000-0  98250-3 0  9998,2 52489  53.2162 188.0873 0001514  77.3805 282.7356 15.08842058 50699,6917.874,95.437,540.786,538.692,0.0
52489.0,STARLINK-3923,PAYLOAD,2023-04-03 12:27:12,15.0884284,0.0001348,53.2161,187.7896,76.7042,283.4101,0.0011751,0.00018465,0.0,0 STARLINK-3923,1 52489U 22049AQ  23093.51889092  .00018465  00000-0  11751-2 0  9995,2 52489  53.2161 187.7896 0001348  76.7042 283.4101 15.08842840 50549,6917.872,95.437,540.669,538.804,0.0
52489.0,STARLINK-3923,PAYLOAD,2023-04-03 18:48:44,15.08855365,0.000147,53.216,186.5995,78.8479,281.2678,0.001314,0.00020695,0.0,0 STARLINK-3923,1 52489U 22049AQ  23093.78384857  .00020695  00000-0  13140-2 0  9995,2 52489  53.2160 186.5995 0001470  78.8479 281.2678 15.08855365 50583,6917.833,95.437,540.715,538.682,0.0
52489.0,STARLINK-3923,PAYLOAD,2023-04-04 10:42:35,15.08851878,0.0001208,53.2163,183.6263,58.6075,301.5035,0.00081213,0.00012665,0.0,0 STARLINK-3923,1 52489U 22049AQ  23094.44624918  .00012665  00000-0  81213-3 0  9999,2 52489  53.2163 183.6263 0001208  58.6075 301.5035 15.08851878 50846,6917.844,95.437,540.545,538.873,0.0
52489.0,STARLINK-3923,PAYLOAD,2023-04-04 17:04:08,15.08867747,0.0001819,53.2164,182.4363,64.4269,295.6911,0.0010379,0.00016281,0.0,0 STARLINK-3923,1 52489U 22049AQ  23094.71120549  .00016281  00000-0  10379-2 0  9992,2 52489  53.2164 182.4363 0001819  64.4269 295.6911 15.08867747 50728,6917.796,95.436,540.919,538.402,0.0
52489.0,STARLINK-3923,PAYLOAD,2023-04-05 12:08:46,15.0883844,0.0001086,53.2166,178.8678,115.0871,245.0234,0.0015801,0.00024948,0.0,0 STARLINK-3923,1 52489U 22049AQ  23095.50609105  .00024948  00000-0  15801-2 0  9994,2 52489  53.2166 178.8678 0001086 115.0871 245.0234 15.08838440 50844,6917.885,95.438,540.501,538.999,0.0
52489.0,STARLINK-3923,PAYLOAD,2023-04-05 16:54:55,15.08845851,0.0001041,53.2165,177.9761,106.0297,254.081,0.0014347,0.00022623,0.0,0 STARLINK-3923,1 52489U 22049AQ  23095.70481108  .00022623  00000-0  14347-2 0  9999,2 52489  53.2165 177.9761 0001041 106.0297 254.0810 15.08845851 50876,6917.863,95.437,540.448,539.007,0.0
52489.0,STARLINK-3923,PAYLOAD,2023-04-06 11:59:33,15.0884841,0.0001152,53.2174,174.4083,87.1091,273.0033,0.0011386,0.00017883,0.0,0 STARLINK-3923,1 52489U 22049AQ  23096.49969416  .00017883  00000-0  11386-2 0  9991,2 52489  53.2174 174.4083 0001152  87.1091 273.0033 15.08848410 51153,6917.855,95.437,540.517,538.923,0.0
52489.0,STARLINK-3923,PAYLOAD,2023-04-06 15:10:19,15.08852393,0.0001161,53.2172,173.8137,89.7462,270.3663,0.0014218,0.0002242,0.0,0 STARLINK-3923,1 52489U 22049AQ  23096.63217388  .00022420  00000-0  14218-2 0  9991,2 52489  53.2172 173.8137 0001161  89.7462 270.3663 15.08852393 51013,6917.843,95.437,540.511,538.904,0.0
52489.0,STARLINK-3923,PAYLOAD,2023-04-07 05:28:48,15.08847046,0.0001009,53.2163,171.1368,97.5792,262.5315,0.00097297,0.00015234,0.0,0 STARLINK-3923,1 52489U 22049AQ  23097.22833461  .00015234  00000-0  97297-3 0  9997,2 52489  53.2163 171.1368 0001009  97.5792 262.5315 15.08847046 51267,6917.859,95.437,540.422,539.026,0.0
